
# Worst residual: 141.15 km
# MJD 60365.000000 (2024 Feb 25  0:00)
A112aeo = A112t8g = A113iI2
1 79931U 24999ZZU 24056.49919926  .00000000  00000-0  00000-0 0 22555
2 79931 010.1832 069.9150 5694957 275.8496 085.8214 00.77699750    00

# Worst residual: 80.27 km
# MJD 60366.000000 (2024 Feb 26  0:00)
A112aeo = A112t8g = A113iI2
1 79931U 24999ZZU 24057.49919926  .00000000  00000-0  00000-0 0 22556
2 79931 010.1908 069.7961 5699086 276.7222 004.1684 00.77971971    00

# Worst residual: 121.85 km
# MJD 60367.000000 (2024 Feb 27  0:00)
A112aeo = A112t8g = A113iI2
1 79931U 24999ZZU 24058.49919926  .00000000  00000-0  00000-0 0 22557
2 79931 010.1968 069.6845 5713505 277.5188 282.5604 00.77695699    03

# Worst residual: 42.30 km
# MJD 60368.000000 (2024 Feb 28  0:00)
A112aeo = A112t8g = A113iI2
1 79931U 24999ZZU 24059.49919926  .00000000  00000-0  00000-0 0 22558
2 79931 010.1968 069.5296 5704867 278.3837 201.3708 00.77448566    06

# Worst residual: 80.20 km
# MJD 60369.000000 (2024 Feb 29  0:00)
A112aeo = A112t8g = A113iI2
1 79931U 24999ZZU 24060.49919926  .00000000  00000-0  00000-0 0 22550
2 79931 010.2055 069.3966 5724770 279.3186 120.2296 00.77579505    08

# Worst residual: 139.10 km
# MJD 60370.000000 (2024 Mar  1  0:00)
A112aeo = A112t8g = A113iI2
1 79931U 24999ZZU 24061.49919926  .00000000  00000-0  00000-0 0 22551
2 79931 010.2175 069.2745 5733945 280.0664 039.0528 00.77941268    03

# Worst residual: 120.98 km
# MJD 60371.000000 (2024 Mar  2  0:00)
A112aeo = A112t8g = A113iI2
1 79931U 24999ZZU 24062.49919926  .00000000  00000-0  00000-0 0 22552
2 79931 010.2215 069.0735 5747324 281.0471 317.3308 00.77869541    09

# Worst residual: 61.49 km
# MJD 60372.000000 (2024 Mar  3  0:00)
A112aeo = A112t8g = A113iI2
1 79931U 24999ZZU 24063.49919926  .00000000  00000-0  00000-0 0 22553
2 79931 010.2310 068.8721 5741373 281.8522 236.1710 00.77515816    08

# Worst residual: 53.15 km
# MJD 60373.000000 (2024 Mar  4  0:00)
A112aeo = A112t8g = A113iI2
1 79931U 24999ZZU 24064.49919926  .00000000  00000-0  00000-0 0 22554
2 79931 010.2390 068.6872 5747201 282.8930 155.0204 00.77478820    01

# Worst residual: 145.34 km
# MJD 60374.000000 (2024 Mar  5  0:00)
A112aeo = A112t8g = A113iI2
1 79931U 24999ZZU 24065.49919926  .00000000  00000-0  00000-0 0 22555
2 79931 010.2589 068.5183 5771267 283.6881 074.0449 00.77816902    06

# Worst residual: 108.72 km
# MJD 60375.000000 (2024 Mar  6  0:00)
A112aeo = A112t8g = A113iI2
1 79931U 24999ZZU 24066.49919926  .00000000  00000-0  00000-0 0 22556
2 79931 010.2744 068.2242 5774618 284.7905 352.3784 00.77998048    00

# Worst residual: 119.79 km
# MJD 60376.000000 (2024 Mar  7  0:00)
A112aeo = A112t8g = A113iI2
1 79931U 24999ZZU 24067.49919926  .00000000  00000-0  00000-0 0 22557
2 79931 010.2808 067.9865 5784448 285.6839 270.9386 00.77659642    03

# Worst residual: 50.74 km
# MJD 60377.000000 (2024 Mar  8  0:00)
A112aeo = A112t8g = A113iI2
1 79931U 24999ZZU 24068.49919926  .00000000  00000-0  00000-0 0 22558
2 79931 010.2910 067.7473 5775718 286.6993 189.7646 00.77449391    06

# Worst residual: 107.76 km
# MJD 60378.000000 (2024 Mar  9  0:00)
A112aeo = A112t8g = A113iI2
1 79931U 24999ZZU 24069.49919926  .00000000  00000-0  00000-0 0 22559
2 79931 010.3118 067.5304 5797130 287.6816 108.6939 00.77646041    01

# Worst residual: 117.63 km
# MJD 60379.000000 (2024 Mar 10  0:00)
A112aeo = A112t8g = A113iI2
1 79931U 24999ZZU 24070.49919926  .00000000  00000-0  00000-0 0 22551
2 79931 010.3379 067.2374 5802223 288.6502 027.3498 00.77993118    04

# Worst residual: 128.64 km
# MJD 60380.000000 (2024 Mar 11  0:00)
A112aeo = A112t8g = A113iI2
1 79931U 24999ZZU 24071.49919926  .00000000  00000-0  00000-0 0 22552
2 79931 010.3573 066.8747 5814434 289.8018 305.5968 00.77820548    00

# Worst residual: 54.09 km
# MJD 60381.000000 (2024 Mar 12  0:00)
A112aeo = A112t8g = A113iI2
1 79931U 24999ZZU 24072.49919926  .00000000  00000-0  00000-0 0 22553
2 79931 010.3704 066.5596 5803404 290.7590 224.4208 00.77476287    09

# Worst residual: 68.38 km
# MJD 60382.000000 (2024 Mar 13  0:00)
A112aeo = A112t8g = A113iI2
1 79931U 24999ZZU 24073.49919926  .00000000  00000-0  00000-0 0 22554
2 79931 010.3886 066.3665 5811656 291.8060 143.2511 00.77499325    00

# Worst residual: 142.82 km
# MJD 60383.000000 (2024 Mar 14  0:00)
A112aeo = A112t8g = A113iI2
1 79931U 24999ZZU 24074.49919926  .00000000  00000-0  00000-0 0 22555
2 79931 010.4282 066.0553 5829351 292.7188 062.2025 00.77872097    07

# Worst residual: 126.40 km
# MJD 60384.000000 (2024 Mar 15  0:00)
A112aeo = A112t8g = A113iI2
1 79931U 24999ZZU 24075.49919926  .00000000  00000-0  00000-0 0 22556
2 79931 010.4611 065.6401 5832329 293.9521 340.4198 00.77948444    05

# Worst residual: 102.95 km
# MJD 60385.000000 (2024 Mar 16  0:00)
A112aeo = A112t8g = A113iI2
1 79931U 24999ZZU 24076.49919926  .00000000  00000-0  00000-0 0 22557
2 79931 010.4761 065.2944 5832962 294.8947 259.1197 00.77586793    04

# Worst residual: 50.27 km
# MJD 60386.000000 (2024 Mar 17  0:00)
A112aeo = A112t8g = A113iI2
1 79931U 24999ZZU 24077.49919926  .00000000  00000-0  00000-0 0 22558
2 79931 010.5005 064.9824 5826388 296.0095 177.9426 00.77456737    08

# Worst residual: 125.08 km
# MJD 60387.000000 (2024 Mar 18  0:00)
A112aeo = A112t8g = A113iI2
1 79931U 24999ZZU 24078.49919926  .00000000  00000-0  00000-0 0 22559
2 79931 010.5363 064.6753 5846607 297.0105 096.9001 00.77714161    09

# Worst residual: 89.58 km
# MJD 60388.000000 (2024 Mar 19  0:00)
A112aeo = A112t8g = A113iI2
1 79931U 24999ZZU 24079.49919926  .00000000  00000-0  00000-0 0 22550
2 79931 010.5843 064.2911 5845586 298.0914 015.4348 00.78006876    06

# Worst residual: 132.58 km
# MJD 60389.000000 (2024 Mar 20  0:00)
A112aeo = A112t8g = A113iI2
1 79931U 24999ZZU 24080.49919926  .00000000  00000-0  00000-0 0 22552
2 79931 010.6227 063.8721 5856119 299.2214 293.8118 00.77746921    05

# Worst residual: 50.64 km
# MJD 60390.000000 (2024 Mar 21  0:00)
A112aeo = A112t8g = A113iI2
1 79931U 24999ZZU 24081.49919926  .00000000  00000-0  00000-0 0 22553
2 79931 010.6525 063.5211 5842718 300.2407 212.6464 00.77462392    04

# Worst residual: 89.28 km
# MJD 60391.000000 (2024 Mar 22  0:00)
A112aeo = A112t8g = A113iI2
1 79931U 24999ZZU 24082.49919926  .00000000  00000-0  00000-0 0 22554
2 79931 010.6876 063.1987 5854526 301.3716 131.5081 00.77546442    07

# Worst residual: 136.25 km
# MJD 60392.000000 (2024 Mar 23  0:00)
A112aeo = A112t8g = A113iI2
1 79931U 24999ZZU 24083.49919926  .00000000  00000-0  00000-0 0 22555
2 79931 010.7428 062.8974 5863412 302.2584 050.3894 00.77921677    07

# Worst residual: 142.86 km
# MJD 60393.000000 (2024 Mar 24  0:00)
A112aeo = A112t8g = A113iI2
1 79931U 24999ZZU 24084.49919926  .00000000  00000-0  00000-0 0 22556
2 79931 010.8019 062.4071 5867438 303.5527 328.5816 00.77897655    03
